[{"OBJECT_NAME":"STARLINK-2530","OBJECT_ID":"2021-036AD","EPOCH":"2026-03-09T16:00:03.000096","MEAN_MOTION":15.30175273,"ECCENTRICITY":0.0001325,"INCLINATION":53.1604,"RA_OF_ASC_NODE":88.5428,"ARG_OF_PERICENTER":82.4327,"MEAN_ANOMALY":322.2393,"EPHEMERIS_TYPE":0,"CLASSIFICATION_TYPE":"U","NORAD_CAT_ID":48303,"ELEMENT_SET_NO":999,"REV_AT_EPOCH":580,"BSTAR":-0.00042876,"MEAN_MOTION_DOT":-0.00013026,"MEAN_MOTION_DDOT":0},{"OBJECT_NAME":"CERISE","OBJECT_ID":"1995-033B","EPOCH":"2026-03-09T23:11:27.589056","MEAN_MOTION":15.32047731,"ECCENTRICITY":0.00057118,"INCLINATION":98.325,"RA_OF_ASC_NODE":273.5192,"ARG_OF_PERICENTER":211.8754,"MEAN_ANOMALY":148.214,"EPHEMERIS_TYPE":0,"CLASSIFICATION_TYPE":"U","NORAD_CAT_ID":23606,"ELEMENT_SET_NO":999,"REV_AT_EPOCH":66468,"BSTAR":0.00062940675,"MEAN_MOTION_DOT":0.00019422,"MEAN_MOTION_DDOT":0}]
